#aV2022  6 30  0  0  0.00000000     288 DD+AD WGS84 FIT  NGA
## 2216 345600.00000000   300.00000000 59760 0.0000000000000
+   32     1  2  3  4  5  6  7  8  9 10 11 12 13 14 15 16 17
+         18 19 20 21 22 23 24 25 26 27 28 29 30 31 32  0  0
+          0  0  0  0  0  0  0  0  0  0  0  0  0  0  0  0  0
+          0  0  0  0  0  0  0  0  0  0  0  0  0  0  0  0  0
+          0  0  0  0  0  0  0  0  0  0  0  0  0  0  0  0  0
++         2  2  2  2  2  2  2  2  2  2  2  2  2  2  2  2  2
++         2  2  2  2  2  2  2  2  2  2  2  2  2  2  2  0  0
++         0  0  0  0  0  0  0  0  0  0  0  0  0  0  0  0  0
++         0  0  0  0  0  0  0  0  0  0  0  0  0  0  0  0  0
++         0  0  0  0  0  0  0  0  0  0  0  0  0  0  0  0  0
%c cc cc ccc ccc cccc cccc cccc cccc ccccc ccccc ccccc ccccc
%c cc cc ccc ccc cccc cccc cccc cccc ccccc ccccc ccccc ccccc
%f  0.0000000  0.000000000  0.00000000000  0.000000000000000
%f  0.0000000  0.000000000  0.00000000000  0.000000000000000
%i    0    0    0    0      0      0      0      0         0
%i    0    0    0    0      0      0      0      0         0
/*      NGA, ST. LOUIS,MO.                                  
/*   EPHEMERIS COMPUTED FROM 2 DAYS OF DATA                 
/*   EPOCHA v7 SMOOTHER                                     
/*   G2139 IERS2010 SATIGS SATAPC                           
*  2022  6 30 20 20  0.00000000
P  1   1841.294009  14750.987963 -22295.705429    330.559874                    
V  1 -26583.106362   7116.358188   2884.172701     -0.076615                    
P  2  18854.367739 -15533.098423  11265.431538   -652.095694                    
V  2  13111.067496  -2854.278626 -27328.523211      0.004849                    
P  3   9534.093147  21251.501364 -12986.118343   -294.372713                    
V  3 -12999.648166  -9888.319142 -25845.354509     -0.111037                    
P  4   -171.721035  24834.217964   9299.668924   -151.252598                    
V  4  -5677.970307  10692.597062 -28773.907283      0.043020                    
P  5   3871.685312 -15852.843588  20756.796144    -87.452677                    
V  5  20738.663025  16962.753872   9155.928440     -0.013915                    
P  6  25847.563844  -5791.439492  -2418.687342    365.508743                    
V  6  -2479.362790   2697.062722 -32082.683226      0.159971                    
P  7  18199.674289   8241.035424  18148.531273    320.700958                    
V  7 -20825.890888   7445.033774  17421.220810     -0.010190                    
P  8  -4649.285189  25917.150248  -1416.961895    -74.297988                    
V  8  -3348.406708   1080.708064  31972.799635     -0.016019                    
P  9   8281.109907  18524.196522  17054.692490   -323.539456                    
V  9  -6558.291660  20893.349058 -19465.658579      0.036152                    
P 10 -21731.762815  -8796.455192 -12616.022559   -474.968592                    
V 10 -10474.750612 -12382.753444  26081.331929     -0.141882                    
P 11  20973.338522 -12445.653996  10485.971811    -12.167615                    
V 11  13529.770414   -696.198333 -27895.810973      0.015951                    
P 12  -5167.761428 -21306.135907 -15337.224105   -239.284616                    
V 12  14000.507147  12863.163322 -22883.869932     -0.058952                    
P 13  13240.895615 -21986.798802   6305.948855    339.684413                    
V 13   -542.392090   8636.632606  30678.155736      0.070405                    
P 14  21593.109856  10296.154014 -11644.735742   -112.008502                    
V 14   8495.899808  12343.027819  26564.416818     -0.001040                    
P 15   1526.059825 -26309.252737  -1760.223979    -49.078087                    
V 15   4187.622095  -1331.716935  31165.552441      0.030070                    
P 16 -10212.390247  10915.079211  21662.618616   -512.525384                    
V 16 -18848.450532 -20927.852248   2081.096539     -0.024545                    
P 17  14722.160119   1626.452472 -21618.485627    631.394269                    
V 17  -8141.043551  27248.492824  -3374.997411      0.044988                    
P 18 -17759.119737  -7971.607985  18113.923879    126.954222                    
V 18  21786.594437  -7333.372270  18005.247857     -0.111456                    
P 19  16623.446051  -7233.967113 -19586.123833    177.644027                    
V 19  -7143.480251  23306.059849 -15086.951524      0.050102                    
P 20  14359.308351  -8315.472013  20697.852267    507.032956                    
V 20  21163.440981  15788.488211  -8566.823221     -0.031770                    
P 21  -8262.310291  16691.888926 -18024.485385    161.248234                    
V 21 -23563.782042   6837.902810  17244.132839     -0.000921                    
P 22 -16388.461726  10603.275398 -17513.433459    284.589087                    
V 22   5516.932897 -22547.521489 -18550.376885      0.063807                    
P 23 -20983.131683 -16103.660728  -3018.809835    -30.753456                    
V 23  -1204.852197  -4346.517968  31572.339499     -0.018849                    
P 24   1750.749748 -16973.758437 -20567.932831    208.470012                    
V 24  24374.182810  -8043.019275   9259.326500     -0.092510                    
P 25 -16974.566592 -20199.197821  -4418.346175    343.714318                    
V 25   5605.557751   1647.855837 -30832.846030      0.045298                    
P 26 -18105.099756   3119.417121  19199.208648    215.542846                    
V 26 -17786.303036 -16976.225997 -13641.397913      0.022445                    
P 27 -12473.708956  20474.633697  10774.830346    219.059296                    
V 27    870.433878 -14316.668612  28042.352248      0.019042                    
P 28  18831.329010   2860.769627 -17902.713803    328.591561                    
V 28  14371.593393  19096.063613  17897.465230      0.062420                    
P 29  -6568.097938 -18493.539533  17808.657526   -529.169393                    
V 29   8254.452803 -21187.392180 -18973.884377     -0.036713                    
P 30  24565.578746   1183.236939  10441.369190   -532.860088                    
V 30 -11829.379433   6332.186596  27094.167732     -0.009946                    
P 31 -25906.554574   6927.490495    -55.121029   -183.915965                    
V 31   -765.816356  -2509.596446 -31310.196486     -0.015360                    
P 32 -15662.153040   1488.409469 -21225.553993   -164.420040                    
V 32   5569.581774 -26773.229265  -6130.875430     -0.096945                    
EOF
